0 COSMOS 1367
1 13205U 82045A   13287.59524598  .00000213  00000-0  00000+0 0   387
2 13205 070.8821 263.5568 5217299 106.9541 072.8536 02.00845422230053
0 COSMOS 1367
1 13205U 82045A   13292.93878281  .00000135  00000-0  00000+0 0   396
2 13205 070.8826 263.3227 5214411 106.7813 336.5141 02.00848151230167
